[{"OBJECT_NAME":"KUIPER-00028","OBJECT_ID":"2025-088T","EPOCH":"2026-03-04T08:41:10.281984","MEAN_MOTION":14.80003574,"ECCENTRICITY":6.242e-5,"INCLINATION":51.8989,"RA_OF_ASC_NODE":116.6123,"ARG_OF_PERICENTER":77.0276,"MEAN_ANOMALY":283.0756,"EPHEMERIS_TYPE":0,"CLASSIFICATION_TYPE":"U","NORAD_CAT_ID":63741,"ELEMENT_SET_NO":999,"REV_AT_EPOCH":4727,"BSTAR":0.00051058241,"MEAN_MOTION_DOT":3.68e-5,"MEAN_MOTION_DDOT":0},{"OBJECT_NAME":"KUIPER-00029","OBJECT_ID":"2025-088U","EPOCH":"2026-03-05T02:48:24.486912","MEAN_MOTION":14.83615084,"ECCENTRICITY":7.07e-5,"INCLINATION":51.9007,"RA_OF_ASC_NODE":110.9161,"ARG_OF_PERICENTER":97.234,"MEAN_ANOMALY":262.8705,"EPHEMERIS_TYPE":0,"CLASSIFICATION_TYPE":"U","NORAD_CAT_ID":63742,"ELEMENT_SET_NO":999,"REV_AT_EPOCH":4694,"BSTAR":0.00075457,"MEAN_MOTION_DOT":6.061e-5,"MEAN_MOTION_DDOT":0},{"OBJECT_NAME":"KUIPER-00030","OBJECT_ID":"2025-088V","EPOCH":"2026-03-04T13:54:28.080288","MEAN_MOTION":14.79931199,"ECCENTRICITY":0.0010913,"INCLINATION":51.9,"RA_OF_ASC_NODE":133.1429,"ARG_OF_PERICENTER":52.857,"MEAN_ANOMALY":307.3388,"EPHEMERIS_TYPE":0,"CLASSIFICATION_TYPE":"U","NORAD_CAT_ID":63743,"ELEMENT_SET_NO":999,"REV_AT_EPOCH":4687,"BSTAR":-0.00016255,"MEAN_MOTION_DOT":-1.464e-5,"MEAN_MOTION_DDOT":0},{"OBJECT_NAME":"KUIPER-00031","OBJECT_ID":"2025-088W","EPOCH":"2026-03-04T12:25:37.043904","MEAN_MOTION":14.83605758,"ECCENTRICITY":0.0002182,"INCLINATION":51.8993,"RA_OF_ASC_NODE":118.6945,"ARG_OF_PERICENTER":127.3613,"MEAN_ANOMALY":232.755,"EPHEMERIS_TYPE":0,"CLASSIFICATION_TYPE":"U","NORAD_CAT_ID":63744,"ELEMENT_SET_NO":999,"REV_AT_EPOCH":4678,"BSTAR":0.00091847,"MEAN_MOTION_DOT":7.427e-5,"MEAN_MOTION_DDOT":0},{"OBJECT_NAME":"KUIPER-00032","OBJECT_ID":"2025-088X","EPOCH":"2026-03-05T02:49:22.488960","MEAN_MOTION":15.37138758,"ECCENTRICITY":0.0005311,"INCLINATION":51.8698,"RA_OF_ASC_NODE":46.329,"ARG_OF_PERICENTER":96.3718,"MEAN_ANOMALY":263.7874,"EPHEMERIS_TYPE":0,"CLASSIFICATION_TYPE":"U","NORAD_CAT_ID":63745,"ELEMENT_SET_NO":999,"REV_AT_EPOCH":4884,"BSTAR":0.00051098,"MEAN_MOTION_DOT":0.00018529,"MEAN_MOTION_DDOT":0},{"OBJECT_NAME":"KUIPER-00033","OBJECT_ID":"2025-088Y","EPOCH":"2026-03-04T10:25:19.861824","MEAN_MOTION":14.83400226,"ECCENTRICITY":8.311e-5,"INCLINATION":51.9006,"RA_OF_ASC_NODE":149.2249,"ARG_OF_PERICENTER":43.8687,"MEAN_ANOMALY":316.2343,"EPHEMERIS_TYPE":0,"CLASSIFICATION_TYPE":"U","NORAD_CAT_ID":63746,"ELEMENT_SET_NO":999,"REV_AT_EPOCH":4683,"BSTAR":0.0011415878,"MEAN_MOTION_DOT":9.242e-5,"MEAN_MOTION_DDOT":0},{"OBJECT_NAME":"KUIPER-00034","OBJECT_ID":"2025-088Z","EPOCH":"2026-03-05T03:08:03.019200","MEAN_MOTION":14.83542519,"ECCENTRICITY":0.0001809,"INCLINATION":51.9008,"RA_OF_ASC_NODE":108.468,"ARG_OF_PERICENTER":23.4948,"MEAN_ANOMALY":336.6098,"EPHEMERIS_TYPE":0,"CLASSIFICATION_TYPE":"U","NORAD_CAT_ID":63747,"ELEMENT_SET_NO":999,"REV_AT_EPOCH":4714,"BSTAR":0.0001225,"MEAN_MOTION_DOT":7.9e-6,"MEAN_MOTION_DDOT":0},{"OBJECT_NAME":"KUIPER-00035","OBJECT_ID":"2025-088AA","EPOCH":"2026-03-05T00:00:01.999296","MEAN_MOTION":14.83232963,"ECCENTRICITY":0.0003836,"INCLINATION":51.8987,"RA_OF_ASC_NODE":134.7148,"ARG_OF_PERICENTER":61.6917,"MEAN_ANOMALY":116.7656,"EPHEMERIS_TYPE":0,"CLASSIFICATION_TYPE":"U","NORAD_CAT_ID":63748,"ELEMENT_SET_NO":999,"REV_AT_EPOCH":308,"BSTAR":0.0027317,"MEAN_MOTION_DOT":0.00022388,"MEAN_MOTION_DDOT":0},{"OBJECT_NAME":"KUIPER-00037","OBJECT_ID":"2025-088AB","EPOCH":"2026-03-05T04:25:47.184096","MEAN_MOTION":14.79937985,"ECCENTRICITY":8.87e-5,"INCLINATION":51.8999,"RA_OF_ASC_NODE":132.984,"ARG_OF_PERICENTER":54.3505,"MEAN_ANOMALY":305.754,"EPHEMERIS_TYPE":0,"CLASSIFICATION_TYPE":"U","NORAD_CAT_ID":63749,"ELEMENT_SET_NO":999,"REV_AT_EPOCH":4764,"BSTAR":0.0017319,"MEAN_MOTION_DOT":0.00013009,"MEAN_MOTION_DDOT":0},{"OBJECT_NAME":"KUIPER-00038","OBJECT_ID":"2025-088AC","EPOCH":"2026-03-05T03:11:49.402752","MEAN_MOTION":14.79956093,"ECCENTRICITY":6.48e-5,"INCLINATION":51.903,"RA_OF_ASC_NODE":118.2389,"ARG_OF_PERICENTER":96.6236,"MEAN_ANOMALY":263.48,"EPHEMERIS_TYPE":0,"CLASSIFICATION_TYPE":"U","NORAD_CAT_ID":63750,"ELEMENT_SET_NO":999,"REV_AT_EPOCH":4684,"BSTAR":0.00025177,"MEAN_MOTION_DOT":1.7e-5,"MEAN_MOTION_DDOT":0},{"OBJECT_NAME":"KUIPER-00039","OBJECT_ID":"2025-134A","EPOCH":"2026-03-04T21:40:46.143840","MEAN_MOTION":14.79931626,"ECCENTRICITY":0.0001043,"INCLINATION":51.8999,"RA_OF_ASC_NODE":254.2578,"ARG_OF_PERICENTER":63.8492,"MEAN_ANOMALY":296.2578,"EPHEMERIS_TYPE":0,"CLASSIFICATION_TYPE":"U","NORAD_CAT_ID":64500,"ELEMENT_SET_NO":999,"REV_AT_EPOCH":3936,"BSTAR":0.00060551,"MEAN_MOTION_DOT":4.398e-5,"MEAN_MOTION_DDOT":0},{"OBJECT_NAME":"KUIPER-00040","OBJECT_ID":"2025-134B","EPOCH":"2026-03-04T19:45:24.752160","MEAN_MOTION":14.79979044,"ECCENTRICITY":0.0013507,"INCLINATION":51.8984,"RA_OF_ASC_NODE":265.749,"ARG_OF_PERICENTER":248.7136,"MEAN_ANOMALY":111.2384,"EPHEMERIS_TYPE":0,"CLASSIFICATION_TYPE":"U","NORAD_CAT_ID":64501,"ELEMENT_SET_NO":999,"REV_AT_EPOCH":3919,"BSTAR":0.0013272,"MEAN_MOTION_DOT":9.934e-5,"MEAN_MOTION_DDOT":0},{"OBJECT_NAME":"KUIPER-00041","OBJECT_ID":"2025-134C","EPOCH":"2026-03-04T13:23:09.038400","MEAN_MOTION":14.78704906,"ECCENTRICITY":0.0007155,"INCLINATION":51.8986,"RA_OF_ASC_NODE":268.3368,"ARG_OF_PERICENTER":248.4948,"MEAN_ANOMALY":111.5251,"EPHEMERIS_TYPE":0,"CLASSIFICATION_TYPE":"U","NORAD_CAT_ID":64502,"ELEMENT_SET_NO":999,"REV_AT_EPOCH":3913,"BSTAR":0.00062633,"MEAN_MOTION_DOT":4.422e-5,"MEAN_MOTION_DDOT":0},{"OBJECT_NAME":"KUIPER-00042","OBJECT_ID":"2025-134D","EPOCH":"2026-03-04T23:03:47.286144","MEAN_MOTION":14.79938603,"ECCENTRICITY":0.0007171,"INCLINATION":51.8982,"RA_OF_ASC_NODE":262.5029,"ARG_OF_PERICENTER":264.9825,"MEAN_ANOMALY":95.0319,"EPHEMERIS_TYPE":0,"CLASSIFICATION_TYPE":"U","NORAD_CAT_ID":64503,"ELEMENT_SET_NO":999,"REV_AT_EPOCH":3925,"BSTAR":0.0019298,"MEAN_MOTION_DOT":0.00014528,"MEAN_MOTION_DDOT":0},{"OBJECT_NAME":"KUIPER-00043","OBJECT_ID":"2025-134E","EPOCH":"2026-03-04T13:03:55.839456","MEAN_MOTION":14.83793091,"ECCENTRICITY":9.17e-5,"INCLINATION":51.9002,"RA_OF_ASC_NODE":255.9107,"ARG_OF_PERICENTER":309.313,"MEAN_ANOMALY":50.7753,"EPHEMERIS_TYPE":0,"CLASSIFICATION_TYPE":"U","NORAD_CAT_ID":64504,"ELEMENT_SET_NO":999,"REV_AT_EPOCH":3931,"BSTAR":0.00068702,"MEAN_MOTION_DOT":5.522e-5,"MEAN_MOTION_DDOT":0},{"OBJECT_NAME":"KUIPER-00044","OBJECT_ID":"2025-134F","EPOCH":"2026-03-04T22:55:58.968768","MEAN_MOTION":14.79894757,"ECCENTRICITY":0.0007716,"INCLINATION":51.9018,"RA_OF_ASC_NODE":267.5249,"ARG_OF_PERICENTER":258.1479,"MEAN_ANOMALY":101.8618,"EPHEMERIS_TYPE":0,"CLASSIFICATION_TYPE":"U","NORAD_CAT_ID":64505,"ELEMENT_SET_NO":999,"REV_AT_EPOCH":3918,"BSTAR":-0.0011752,"MEAN_MOTION_DOT":-9.166e-5,"MEAN_MOTION_DDOT":0},{"OBJECT_NAME":"KUIPER-00046","OBJECT_ID":"2025-134G","EPOCH":"2026-03-04T19:47:44.816928","MEAN_MOTION":14.79921989,"ECCENTRICITY":8.56e-5,"INCLINATION":51.8983,"RA_OF_ASC_NODE":264.5646,"ARG_OF_PERICENTER":101.0614,"MEAN_ANOMALY":259.0445,"EPHEMERIS_TYPE":0,"CLASSIFICATION_TYPE":"U","NORAD_CAT_ID":64506,"ELEMENT_SET_NO":999,"REV_AT_EPOCH":3921,"BSTAR":6.8301e-5,"MEAN_MOTION_DOT":2.99e-6,"MEAN_MOTION_DDOT":0}]
